STARLINK-30765          
1 58119U 23162B   24268.64457931 -.00000031  00000+0  12740-4 0  9991
2 58119  43.0033 138.9214 0001212 263.2805  96.7900 15.02537178 52411
STARLINK-30768          
1 58120U 23162C   24268.35759017  .00008466  00000+0  64069-3 0  9990
2 58120  43.0014 140.2229 0001112 271.6390  88.4325 15.02556458 52371
STARLINK-30799          
1 58121U 23162D   24268.70995411  .00001079  00000+0  94956-4 0  9992
2 58121  43.0051 138.5515 0000708 257.3752 102.7011 15.02535165 52424
STARLINK-30759          
1 58122U 23162E   24268.68775099  .00001800  00000+0  14825-3 0  9996
2 58122  43.0027 138.3995 0001223 269.0440  91.0263 15.02539197 52434
STARLINK-30781          
1 58123U 23162F   24268.68664257  .00001261  00000+0  10841-3 0  9995
2 58123  43.0024 138.3912 0001234 270.6410  89.4290 15.02538341 52428
STARLINK-30754          
1 58124U 23162G   24268.70662239 -.00000353  00000+0 -11067-4 0  9992
2 58124  43.0019 138.5240 0001158 267.3368  92.7342 15.02535719 46636
STARLINK-30766          
1 58125U 23162H   24268.68331413  .00000452  00000+0  48506-4 0  9993
2 58125  43.0028 138.3659 0001305 268.9372  91.1321 15.02536407 52424
STARLINK-30767          
1 58126U 23162J   24268.67998372  .00002410  00000+0  19341-3 0  9996
2 58126  43.0020 138.3423 0001211 284.1773  75.8935 15.02539310 52423
STARLINK-30790          
1 58127U 23162K   24268.34426301  .00000440  00000+0  47605-4 0  9995
2 58127  43.0021 140.1213 0001022 282.5211  77.5517 15.02541366 52375
STARLINK-30787          
1 58128U 23162L   24268.67332000  .00001179  00000+0  10234-3 0  9991
2 58128  43.0031 138.2902 0001254 275.4381  84.6319 15.02541332 52424
STARLINK-30756          
1 58129U 23162M   24268.37088557  .00002035  00000+0  16562-3 0  9996
2 58129  43.0035 140.3054 0001442 263.7428  96.3250 15.02552900 52373
STARLINK-30783          
1 58130U 23162N   24268.33760135  .00001136  00000+0  99167-4 0  9997
2 58130  43.0014 140.0704 0001116 269.9215  90.1499 15.02539329 52378
STARLINK-30757          
1 58131U 23162P   24268.33427342  .00000052  00000+0  18886-4 0  9993
2 58131  43.0013 140.0446 0001201 266.0295  94.0410 15.02537937 52371
STARLINK-30770          
1 58132U 23162Q   24268.36756951  .00002449  00000+0  19626-3 0  9992
2 58132  43.0002 140.2797 0001390 273.9956  86.0727 15.02542909 52378
STARLINK-30758          
1 58133U 23162R   24268.66554446 -.00002609  00000+0 -17808-3 0  9991
2 58133  43.0006 138.2293 0001388 270.1795  89.8889 15.02552001 52428
STARLINK-30761          
1 58134U 23162S   24268.63015115  .00000580  00000+0  57989-4 0  9993
2 58134  43.0027 138.8089 0001045 269.3089  90.7633 15.02538834 52412
STARLINK-30772          
1 58135U 23162T   24268.72992692  .00002321  00000+0  18678-3 0  9994
2 58135  42.9997 138.6973 0002342 279.8451  80.2127 15.02556111 52428
STARLINK-30776          
1 58136U 23162U   24267.99533824  .00002843  00000+0  22543-3 0  9996
2 58136  43.0026 142.6267 0001343 270.0166  90.0522 15.02539946 52314
STARLINK-30782          
1 58137U 23162V   24268.65678765  .00001267  00000+0  10881-3 0  9996
2 58137  43.0012 139.0091 0001218 263.4345  96.6359 15.02542927 52415
STARLINK-30769          
1 58138U 23162W   24268.65012650  .00001757  00000+0  14505-3 0  9993
2 58138  43.0016 138.9606 0001415 270.2894  89.7786 15.02545338 52410
STARLINK-30775          
1 58139U 23162X   24268.65346060  .00001622  00000+0  13513-3 0  9998
2 58139  43.0017 138.9852 0001218 274.5376  85.5327 15.02538271 52411
STARLINK-30780          
1 58140U 23162Y   24268.64679014 -.00016077  00000+0 -11757-2 0  9996
2 58140  43.0030 138.9339 0000596 272.1070  87.9704 15.02603068 52413
STARLINK-30802          
1 58150U 23166A   24268.73794154  .00001381  00000+0  58719-4 0  9995
2 58150  53.1590 166.1410 0001102  63.0431 297.0683 15.30211325 51884
STARLINK-30834          
1 58151U 23166B   24268.74213337  .00002838  00000+0  10788-3 0  9997
2 58151  53.1616 165.9597 0001297  47.7460 312.3651 15.30206927 51881
STARLINK-30833          
1 58152U 23166C   24268.14800272 -.00001461  00000+0 -37216-4 0  9991
2 58152  53.1602 168.8584 0000937  57.5035 302.6056 15.30213042 51799
STARLINK-30831          
1 58153U 23166D   24268.45770340  .00002503  00000+0  96599-4 0  9993
2 58153  53.1589 167.2510 0001657  93.4887 266.6303 15.30200459 51848
STARLINK-30797          
1 58154U 23166E   24268.41872730  .00005913  00000+0  21166-3 0  9991
2 58154  53.1592 167.4906 0000650 353.7744   6.3248 15.30192134 51689
STARLINK-30804          
1 58155U 23166F   24268.14167993  .00005208  00000+0  18783-3 0  9998
2 58155  53.1585 168.8287 0001336  73.9060 286.2088 15.30201697 51791
STARLINK-30784          
1 58156U 23166G   24268.02054438  .00000949  00000+0  44150-4 0  9990
2 58156  53.1601 169.4883 0001141  65.0537 295.0582 15.30202071 51621
STARLINK-30803          
1 58157U 23166H   24268.71578885  .00001191  00000+0  52338-4 0  9991
2 58157  53.1616 166.0010 0001412  93.2189 266.8974 15.30191587 51732
STARLINK-30829          
1 58158U 23166J   24268.14483455 -.00001399  00000+0 -35108-4 0  9995
2 58158  53.1600 168.8481 0001015  64.3248 295.7857 15.30219440 51798
STARLINK-30788          
1 58159U 23166K   24268.72634555 -.00001817  00000+0 -49225-4 0  9999
2 58159  53.1597 166.0802 0001628  98.9495 261.1690 15.30208996 51738
STARLINK-30779          
1 58160U 23166L   24268.46086406  .00001005  00000+0  46073-4 0  9993
2 58160  53.1598 167.2684 0001350  91.2295 268.8860 15.30197762 51841
STARLINK-30773          
1 58161U 23166M   24268.70629015  .00000918  00000+0  43124-4 0  9996
2 58161  53.1615 165.9381 0000905 105.6156 254.4944 15.30196619 51880
STARLINK-30816          
1 58162U 23166N   24268.44186737  .00001945  00000+0  77796-4 0  9990
2 58162  53.1600 167.1555 0001315  73.5354 286.5791 15.30198246 51841
STARLINK-30763          
1 58163U 23166P   24268.41678174  .00001226  00000+0  47658-4 0  9995
2 58163  53.1612 162.2096 0001336  93.2901 266.8254 15.34226977 51900
STARLINK-30815          
1 58164U 23166Q   24268.45137119  .00000259  00000+0  20866-4 0  9996
2 58164  53.1615 167.2145 0001251  95.2687 264.8457 15.30192740 51845
STARLINK-30814          
1 58165U 23166R   24268.74838886  .00004005  00000+0  14724-3 0  9996
2 58165  53.1585 165.5141 0001093  69.6092 290.5026 15.30207452 51898
STARLINK-30789          
1 58166U 23166S   24268.44821215  .00005112  00000+0  18478-3 0  9992
2 58166  53.1621 167.1949 0001389  75.5142 284.6013 15.30167462 51845
STARLINK-30811          
1 58167U 23166T   24268.42815416  .00001594  00000+0  65934-4 0  9997
2 58167  53.1613 167.0667 0001201  75.0102 285.1032 15.30193751 51697
STARLINK-30812          
1 58168U 23166U   24268.42498728  .00001616  00000+0  66676-4 0  9990
2 58168  53.1605 167.0526 0001055  82.4226 277.6895 15.30195580 51694
STARLINK-30771          
1 58169U 23166V   24268.76527176  .00003503  00000+0  13028-3 0  9997
2 58169  53.1600 165.6150 0000613 112.7614 247.3451 15.30209431 51899
STARLINK-30764          
1 58170U 23166W   24268.43553976  .00002565  00000+0  98705-4 0  9993
2 58170  53.1588 167.1155 0001059  89.0908 271.0214 15.30196819 51846
STARLINK-30752          
1 58171U 23166X   24268.43237255  .00002064  00000+0  81804-4 0  9999
2 58171  53.1593 167.0845 0001248  86.1427 273.9717 15.30200360 51848
STARLINK-30753          
1 58175U 23167A   24268.36500410 -.00009099  00000+0 -65857-3 0  9998
2 58175  43.0035 152.7268 0001100 275.6106  84.4610 15.02583389 51039
STARLINK-30824          
1 58176U 23167B   24268.36390500 -.00000053  00000+0  11126-4 0  9997
2 58176  43.0026 152.7185 0001116 276.2312  83.8403 15.02545972 51030
STARLINK-30791          
1 58177U 23167C   24268.38054958  .00001390  00000+0  11795-3 0  9999
2 58177  43.0030 152.8210 0001229 261.8769  98.1934 15.02543619 51031
STARLINK-30810          
1 58178U 23167D   24268.09144874  .00000230  00000+0  32075-4 0  9992
2 58178  43.0031 154.9604 0001049 287.6911  72.3817 15.02551330 50984
STARLINK-30819          
1 58179U 23167E   24268.68642493  .00002257  00000+0  18214-3 0  9997
2 58179  43.0010 151.6828 0001090 282.2998  77.7722 15.02529309 51072
STARLINK-30806          
1 58180U 23167F   24268.68308552 -.00002943  00000+0 -20276-3 0  9999
2 58180  43.0030 151.6572 0000799 269.7102  90.3649 15.02561415 51077
STARLINK-30821          
1 58181U 23167G   24268.37722407  .00001170  00000+0  10169-3 0  9994
2 58181  43.0012 152.8011 0001090 275.1049  84.9669 15.02539710 51035
STARLINK-30778          
1 58182U 23167H   24268.70628616  .00000824  00000+0  76060-4 0  9997
2 58182  43.0019 150.9689 0000949 274.4346  85.6387 15.02537887 51080
STARLINK-30809          
1 58183U 23167J   24268.67975958  .00003375  00000+0  26472-3 0  9993
2 58183  43.0016 151.6319 0001383 262.8629  97.2056 15.02546711 51071
STARLINK-30801          
1 58184U 23167K   24268.41052104  .00010227  00000+0  77065-3 0  9993
2 58184  43.0028 153.0509 0001580 270.4268  89.6394 15.02553381 51032
STARLINK-30793          
1 58185U 23167L   24268.37056145  .00000601  00000+0  59512-4 0  9991
2 58185  43.0018 152.7496 0001367 269.9709  90.0977 15.02545141 51037
STARLINK-30755          
1 58186U 23167M   24268.40165040  .00003868  00000+0  30125-3 0  9997
2 58186  42.9995 152.9848 0000382 280.0516  80.0283 15.02531439 51033
STARLINK-30760          
1 58187U 23167N   24268.36723624  .00000958  00000+0  85951-4 0  9996
2 58187  43.0020 152.7241 0001329 276.5298  83.5393 15.02542569 51035
STARLINK-30826          
1 58188U 23167P   24268.66644570  .00001332  00000+0  11362-3 0  9993
2 58188  43.0022 151.5290 0001094 272.1432  87.9285 15.02540534 51072
STARLINK-30796          
1 58189U 23167Q   24268.40386125  .00000589  00000+0  58667-4 0  9998
2 58189  43.0044 152.9988 0001315 264.6721  95.3972 15.02543699 51036
